{
  "type": "FeatureCollection",
  "features": [
    {
      "type": "Feature",
      "properties": {
        "norad_id": 37415,
        "name": "FENGYUN 1C DEB",
        "group": "fengyun-1c-debris",
        "lat": 70.28636304514035,
        "lon": 68.42868049491169,
        "alt_km": 1124.0058145453677,
        "timestamp": "2025-12-12T18:57:44.418606+00:00",
        "meta_object_name": "FENGYUN 1C DEB",
        "meta_object_id": "1999-025EGH",
        "meta_epoch": "2025-12-08T13:21:24.699168",
        "meta_mean_motion": 13.52085555,
        "meta_eccentricity": 0.0285076,
        "meta_inclination": 98.9817,
        "meta_ra_of_asc_node": 90.7824,
        "meta_arg_of_pericenter": 192.9583,
        "meta_mean_anomaly": 166.412,
        "meta_ephemeris_type": 0,
        "meta_classification_type": "U",
        "meta_norad_cat_id": 37415,
        "meta_element_set_no": 999,
        "meta_rev_at_epoch": 62265,
        "meta_bstar": 0.00090162,
        "meta_mean_motion_dot": 7.27e-06,
        "meta_mean_motion_ddot": 0,
        "tle_line1": "1 37415U 99025EGH 25342.55653587  .00000727  00000+0  90162-3 0  9991",
        "tle_line2": "2 37415  98.9817  90.7824 0285076 192.9583 166.4120 13.52085555622659"
      },
      "geometry": {
        "type": "Point",
        "coordinates": [
          68.42868049491169,
          70.28636304514035
        ]
      }
    },
    {
      "type": "Feature",
      "properties": {
        "norad_id": 37417,
        "name": "FENGYUN 1C DEB",
        "group": "fengyun-1c-debris",
        "lat": -46.376855830853344,
        "lon": 150.23305614421915,
        "alt_km": 827.7523255864071,
        "timestamp": "2025-12-12T18:57:44.418616+00:00",
        "meta_object_name": "FENGYUN 1C DEB",
        "meta_object_id": "1999-025EGK",
        "meta_epoch": "2025-12-07T06:30:00.629568",
        "meta_mean_motion": 14.07380066,
        "meta_eccentricity": 0.00782242,
        "meta_inclination": 98.7964,
        "meta_ra_of_asc_node": 334.2107,
        "meta_arg_of_pericenter": 276.2736,
        "meta_mean_anomaly": 82.9527,
        "meta_ephemeris_type": 0,
        "meta_classification_type": "U",
        "meta_norad_cat_id": 37417,
        "meta_element_set_no": 999,
        "meta_rev_at_epoch": 68273,
        "meta_bstar": 0.00064539005,
        "meta_mean_motion_dot": 1.072e-05,
        "meta_mean_motion_ddot": 0,
        "tle_line1": "1 37417U 99025EGK 25341.27084062  .00001072  00000+0  64539-3 0  9990",
        "tle_line2": "2 37417  98.7964 334.2107 0078224 276.2736  82.9527 14.07380066682737"
      },
      "geometry": {
        "type": "Point",
        "coordinates": [
          150.23305614421915,
          -46.376855830853344
        ]
      }
    },
    {
      "type": "Feature",
      "properties": {
        "norad_id": 37418,
        "name": "FENGYUN 1C DEB",
        "group": "fengyun-1c-debris",
        "lat": 20.71850555117457,
        "lon": -124.34756124243799,
        "alt_km": 1216.0127525867947,
        "timestamp": "2025-12-12T18:57:44.418626+00:00",
        "meta_object_name": "FENGYUN 1C DEB",
        "meta_object_id": "1999-025EGL",
        "meta_epoch": "2025-12-06T16:12:36.074592",
        "meta_mean_motion": 11.95112147,
        "meta_eccentricity": 0.10777154,
        "meta_inclination": 98.6124,
        "meta_ra_of_asc_node": 234.8635,
        "meta_arg_of_pericenter": 331.8071,
        "meta_mean_anomaly": 22.8442,
        "meta_ephemeris_type": 0,
        "meta_classification_type": "U",
        "meta_norad_cat_id": 37418,
        "meta_element_set_no": 999,
        "meta_rev_at_epoch": 49412,
        "meta_bstar": 0.0048233577,
        "meta_mean_motion_dot": 1.984e-05,
        "meta_mean_motion_ddot": 0,
        "tle_line1": "1 37418U 99025EGL 25340.67541753  .00001984  00000+0  48234-2 0  9994",
        "tle_line2": "2 37418  98.6124 234.8635 1077715 331.8071  22.8442 11.95112147494121"
      },
      "geometry": {
        "type": "Point",
        "coordinates": [
          -124.34756124243799,
          20.71850555117457
        ]
      }
    },
    {
      "type": "Feature",
      "properties": {
        "norad_id": 37420,
        "name": "FENGYUN 1C DEB",
        "group": "fengyun-1c-debris",
        "lat": 73.62338044796668,
        "lon": -171.15486906103055,
        "alt_km": 938.6110990887819,
        "timestamp": "2025-12-12T18:57:44.418637+00:00",
        "meta_object_name": "FENGYUN 1C DEB",
        "meta_object_id": "1999-025EGN",
        "meta_epoch": "2025-12-08T04:40:09.470784",
        "meta_mean_motion": 13.9973792,
        "meta_eccentricity": 0.00707955,
        "meta_inclination": 98.8619,
        "meta_ra_of_asc_node": 332.3305,
        "meta_arg_of_pericenter": 288.8881,
        "meta_mean_anomaly": 70.4618,
        "meta_ephemeris_type": 0,
        "meta_classification_type": "U",
        "meta_norad_cat_id": 37420,
        "meta_element_set_no": 999,
        "meta_rev_at_epoch": 59701,
        "meta_bstar": 0.00086941135,
        "meta_mean_motion_dot": 1.257e-05,
        "meta_mean_motion_ddot": 0,
        "tle_line1": "1 37420U 99025EGN 25342.19455406  .00001257  00000+0  86941-3 0  9996",
        "tle_line2": "2 37420  98.8619 332.3305 0070795 288.8881  70.4618 13.99737920597017"
      },
      "geometry": {
        "type": "Point",
        "coordinates": [
          -171.15486906103055,
          73.62338044796668
        ]
      }
    },
    {
      "type": "Feature",
      "properties": {
        "norad_id": 37421,
        "name": "FENGYUN 1C DEB",
        "group": "fengyun-1c-debris",
        "lat": 68.9319944930864,
        "lon": -82.44024526808887,
        "alt_km": 803.4591175518981,
        "timestamp": "2025-12-12T18:57:44.418647+00:00",
        "meta_object_name": "FENGYUN 1C DEB",
        "meta_object_id": "1999-025EGP",
        "meta_epoch": "2025-12-08T14:18:59.473152",
        "meta_mean_motion": 13.40522268,
        "meta_eccentricity": 0.0408878,
        "meta_inclination": 98.8881,
        "meta_ra_of_asc_node": 297.8318,
        "meta_arg_of_pericenter": 95.9007,
        "meta_mean_anomaly": 268.8872,
        "meta_ephemeris_type": 0,
        "meta_classification_type": "U",
        "meta_norad_cat_id": 37421,
        "meta_element_set_no": 999,
        "meta_rev_at_epoch": 60890,
        "meta_bstar": 0.0009747,
        "meta_mean_motion_dot": 8.4e-06,
        "meta_mean_motion_ddot": 0,
        "tle_line1": "1 37421U 99025EGP 25342.59652168  .00000840  00000+0  97470-3 0  9991",
        "tle_line2": "2 37421  98.8881 297.8318 0408878  95.9007 268.8872 13.40522268608901"
      },
      "geometry": {
        "type": "Point",
        "coordinates": [
          -82.44024526808887,
          68.9319944930864
        ]
      }
    },
    {
      "type": "Feature",
      "properties": {
        "norad_id": 37423,
        "name": "FENGYUN 1C DEB",
        "group": "fengyun-1c-debris",
        "lat": 47.61817910045108,
        "lon": -133.21246687568592,
        "alt_km": 831.7008396375068,
        "timestamp": "2025-12-12T18:57:44.418657+00:00",
        "meta_object_name": "FENGYUN 1C DEB",
        "meta_object_id": "1999-025EGR",
        "meta_epoch": "2025-12-09T10:09:17.471232",
        "meta_mean_motion": 14.07540897,
        "meta_eccentricity": 0.00494259,
        "meta_inclination": 98.7863,
        "meta_ra_of_asc_node": 33.7554,
        "meta_arg_of_pericenter": 168.7001,
        "meta_mean_anomaly": 191.529,
        "meta_ephemeris_type": 0,
        "meta_classification_type": "U",
        "meta_norad_cat_id": 37423,
        "meta_element_set_no": 999,
        "meta_rev_at_epoch": 63563,
        "meta_bstar": 0.0013631012,
        "meta_mean_motion_dot": 2.282e-05,
        "meta_mean_motion_ddot": 0,
        "tle_line1": "1 37423U 99025EGR 25343.42311888  .00002282  00000+0  13631-2 0  9995",
        "tle_line2": "2 37423  98.7863  33.7554 0049425 168.7001 191.5290 14.07540897635631"
      },
      "geometry": {
        "type": "Point",
        "coordinates": [
          -133.21246687568592,
          47.61817910045108
        ]
      }
    },
    {
      "type": "Feature",
      "properties": {
        "norad_id": 37424,
        "name": "FENGYUN 1C DEB",
        "group": "fengyun-1c-debris",
        "lat": 8.825824249146617,
        "lon": 114.16796199704916,
        "alt_km": 822.0956563569207,
        "timestamp": "2025-12-12T18:57:44.418667+00:00",
        "meta_object_name": "FENGYUN 1C DEB",
        "meta_object_id": "1999-025EGS",
        "meta_epoch": "2025-12-10T14:24:58.325184",
        "meta_mean_motion": 14.17832081,
        "meta_eccentricity": 0.0215746,
        "meta_inclination": 97.2028,
        "meta_ra_of_asc_node": 113.5139,
        "meta_arg_of_pericenter": 288.8478,
        "meta_mean_anomaly": 68.9416,
        "meta_ephemeris_type": 0,
        "meta_classification_type": "U",
        "meta_norad_cat_id": 37424,
        "meta_element_set_no": 999,
        "meta_rev_at_epoch": 68543,
        "meta_bstar": 0.0014046,
        "meta_mean_motion_dot": 3.573e-05,
        "meta_mean_motion_ddot": 0,
        "tle_line1": "1 37424U 99025EGS 25344.60067506  .00003573  00000+0  14046-2 0  9997",
        "tle_line2": "2 37424  97.2028 113.5139 0215746 288.8478  68.9416 14.17832081685438"
      },
      "geometry": {
        "type": "Point",
        "coordinates": [
          114.16796199704916,
          8.825824249146617
        ]
      }
    }
  ]
}